STARLINK-35808          
1 68052U 26041N   26084.72672719  .00279086  00000+0  18080-2 0  9995
2 68052  53.1587 341.8608 0004806  86.2472 273.9098 15.74681383  3758
STARLINK-36919          
1 68053U 26041P   26084.70925972  .00574077  00000+0  26868-2 0  9997
2 68053  53.1594 341.7435 0000837 102.8289 257.2827 15.81164038  3751
STARLINK-36924          
1 68054U 26041Q   26084.87177380  .00417823  00000+0  25788-2 0  9993
2 68054  53.1602 341.3504 0001509 148.6378 211.4733 15.75404173  3779
STARLINK-35998          
1 68055U 26041R   26084.83335647 -.00111578  00000+0 -73072-3 0  9992
2 68055  53.1589 341.2735 0001058  94.9221 177.8143 15.75320109  4933
STARLINK-36845          
1 68056U 26041S   26084.83335647 -.00152477  00000+0 -10049-2 0  9990
2 68056  53.1598 341.2205 0001203  69.7703 228.7206 15.75321238  4977
STARLINK-36954          
1 68057U 26041T   26084.87144357  .00420378  00000+0  25937-2 0  9999
2 68057  53.1601 341.3470 0001688 171.2174 188.8876 15.75404711  3770
STARLINK-36899          
1 68058U 26041U   26084.74034195  .00392634  00000+0  24339-2 0  9992
2 68058  53.1596 341.9499 0001443  82.7104 277.4080 15.75375669  3758
STARLINK-36917          
1 68059U 26041V   26084.73093723  .00272386  00000+0  17180-2 0  9991
2 68059  53.1576 341.8867 0001153  93.4414 266.6738 15.75324477  3757
STARLINK-36959          
1 68060U 26041W   26084.41857726  .00303970  00000+0  19083-2 0  9997
2 68060  53.1588 343.4951 0001420  57.7855 302.3303 15.75339915  3707
STARLINK-36915          
1 68061U 26041X   26084.83335647 -.00136214  00000+0 -89603-3 0  9990
2 68061  53.1593 341.2230 0001043 111.6893 184.9433 15.75308879  4976
STARLINK-36952          
1 68062U 26041Y   26084.42278669  .00165193  00000+0  10587-2 0  9996
2 68062  53.1598 343.5237 0001240  58.1597 301.9544 15.75286792  3702
STARLINK-37000          
1 68063U 26041Z   26084.83335647 -.00115607  00000+0 -75770-3 0  9995
2 68063  53.1585 341.2759 0000920 112.3645 158.5101 15.75318110  4979
