CCSDS_OMM_VERS = 2.0
CREATION_DATE  = 
ORIGINATOR     = 

OBJECT_NAME    = STARLINK-35808
OBJECT_ID      = 2026-041N
CENTER_NAME    = EARTH
REF_FRAME      = TEME
TIME_SYSTEM    = UTC
MEAN_ELEMENT_THEORY = SGP/SGP4

EPOCH          = 2026-03-25T17:26:29.229216
MEAN_MOTION    = 15.74681383
ECCENTRICITY   = .0004806
INCLINATION    = 53.1587
RA_OF_ASC_NODE = 341.8608
ARG_OF_PERICENTER = 86.2472
MEAN_ANOMALY   = 273.9098

EPHEMERIS_TYPE = 0
CLASSIFICATION_TYPE = U
NORAD_CAT_ID   = 68052
ELEMENT_SET_NO = 999
REV_AT_EPOCH   = 375
BSTAR          = .1808E-2
MEAN_MOTION_DOT = .279086E-2
MEAN_MOTION_DDOT = 0

CCSDS_OMM_VERS = 2.0
CREATION_DATE  = 
ORIGINATOR     = 

OBJECT_NAME    = STARLINK-36919
OBJECT_ID      = 2026-041P
CENTER_NAME    = EARTH
REF_FRAME      = TEME
TIME_SYSTEM    = UTC
MEAN_ELEMENT_THEORY = SGP/SGP4

EPOCH          = 2026-03-25T17:01:20.039808
MEAN_MOTION    = 15.81164038
ECCENTRICITY   = .0000837
INCLINATION    = 53.1594
RA_OF_ASC_NODE = 341.7435
ARG_OF_PERICENTER = 102.8289
MEAN_ANOMALY   = 257.2827

EPHEMERIS_TYPE = 0
CLASSIFICATION_TYPE = U
NORAD_CAT_ID   = 68053
ELEMENT_SET_NO = 999
REV_AT_EPOCH   = 375
BSTAR          = .26868E-2
MEAN_MOTION_DOT = .574077E-2
MEAN_MOTION_DDOT = 0

CCSDS_OMM_VERS = 2.0
CREATION_DATE  = 
ORIGINATOR     = 

OBJECT_NAME    = STARLINK-36924
OBJECT_ID      = 2026-041Q
CENTER_NAME    = EARTH
REF_FRAME      = TEME
TIME_SYSTEM    = UTC
MEAN_ELEMENT_THEORY = SGP/SGP4

EPOCH          = 2026-03-25T20:55:21.256320
MEAN_MOTION    = 15.75404173
ECCENTRICITY   = .0001509
INCLINATION    = 53.1602
RA_OF_ASC_NODE = 341.3504
ARG_OF_PERICENTER = 148.6378
MEAN_ANOMALY   = 211.4733

EPHEMERIS_TYPE = 0
CLASSIFICATION_TYPE = U
NORAD_CAT_ID   = 68054
ELEMENT_SET_NO = 999
REV_AT_EPOCH   = 377
BSTAR          = .25788E-2
MEAN_MOTION_DOT = .417823E-2
MEAN_MOTION_DDOT = 0

CCSDS_OMM_VERS = 2.0
CREATION_DATE  = 
ORIGINATOR     = 

OBJECT_NAME    = STARLINK-35998
OBJECT_ID      = 2026-041R
CENTER_NAME    = EARTH
REF_FRAME      = TEME
TIME_SYSTEM    = UTC
MEAN_ELEMENT_THEORY = SGP/SGP4

EPOCH          = 2026-03-25T20:00:01.999008
MEAN_MOTION    = 15.75320109
ECCENTRICITY   = .0001058
INCLINATION    = 53.1589
RA_OF_ASC_NODE = 341.2735
ARG_OF_PERICENTER = 94.9221
MEAN_ANOMALY   = 177.8143

EPHEMERIS_TYPE = 0
CLASSIFICATION_TYPE = U
NORAD_CAT_ID   = 68055
ELEMENT_SET_NO = 999
REV_AT_EPOCH   = 493
BSTAR          = -.73072E-3
MEAN_MOTION_DOT = -.111578E-2
MEAN_MOTION_DDOT = 0

CCSDS_OMM_VERS = 2.0
CREATION_DATE  = 
ORIGINATOR     = 

OBJECT_NAME    = STARLINK-36845
OBJECT_ID      = 2026-041S
CENTER_NAME    = EARTH
REF_FRAME      = TEME
TIME_SYSTEM    = UTC
MEAN_ELEMENT_THEORY = SGP/SGP4

EPOCH          = 2026-03-25T20:00:01.999008
MEAN_MOTION    = 15.75321238
ECCENTRICITY   = .0001203
INCLINATION    = 53.1598
RA_OF_ASC_NODE = 341.2205
ARG_OF_PERICENTER = 69.7703
MEAN_ANOMALY   = 228.7206

EPHEMERIS_TYPE = 0
CLASSIFICATION_TYPE = U
NORAD_CAT_ID   = 68056
ELEMENT_SET_NO = 999
REV_AT_EPOCH   = 497
BSTAR          = -.10049E-2
MEAN_MOTION_DOT = -.152477E-2
MEAN_MOTION_DDOT = 0

CCSDS_OMM_VERS = 2.0
CREATION_DATE  = 
ORIGINATOR     = 

OBJECT_NAME    = STARLINK-36954
OBJECT_ID      = 2026-041T
CENTER_NAME    = EARTH
REF_FRAME      = TEME
TIME_SYSTEM    = UTC
MEAN_ELEMENT_THEORY = SGP/SGP4

EPOCH          = 2026-03-25T20:54:52.724448
MEAN_MOTION    = 15.75404711
ECCENTRICITY   = .0001688
INCLINATION    = 53.1601
RA_OF_ASC_NODE = 341.3470
ARG_OF_PERICENTER = 171.2174
MEAN_ANOMALY   = 188.8876

EPHEMERIS_TYPE = 0
CLASSIFICATION_TYPE = U
NORAD_CAT_ID   = 68057
ELEMENT_SET_NO = 999
REV_AT_EPOCH   = 377
BSTAR          = .25937E-2
MEAN_MOTION_DOT = .420378E-2
MEAN_MOTION_DDOT = 0

CCSDS_OMM_VERS = 2.0
CREATION_DATE  = 
ORIGINATOR     = 

OBJECT_NAME    = STARLINK-36899
OBJECT_ID      = 2026-041U
CENTER_NAME    = EARTH
REF_FRAME      = TEME
TIME_SYSTEM    = UTC
MEAN_ELEMENT_THEORY = SGP/SGP4

EPOCH          = 2026-03-25T17:46:05.544480
MEAN_MOTION    = 15.75375669
ECCENTRICITY   = .0001443
INCLINATION    = 53.1596
RA_OF_ASC_NODE = 341.9499
ARG_OF_PERICENTER = 82.7104
MEAN_ANOMALY   = 277.4080

EPHEMERIS_TYPE = 0
CLASSIFICATION_TYPE = U
NORAD_CAT_ID   = 68058
ELEMENT_SET_NO = 999
REV_AT_EPOCH   = 375
BSTAR          = .24339E-2
MEAN_MOTION_DOT = .392634E-2
MEAN_MOTION_DDOT = 0

CCSDS_OMM_VERS = 2.0
CREATION_DATE  = 
ORIGINATOR     = 

OBJECT_NAME    = STARLINK-36917
OBJECT_ID      = 2026-041V
CENTER_NAME    = EARTH
REF_FRAME      = TEME
TIME_SYSTEM    = UTC
MEAN_ELEMENT_THEORY = SGP/SGP4

EPOCH          = 2026-03-25T17:32:32.976672
MEAN_MOTION    = 15.75324477
ECCENTRICITY   = .0001153
INCLINATION    = 53.1576
RA_OF_ASC_NODE = 341.8867
ARG_OF_PERICENTER = 93.4414
MEAN_ANOMALY   = 266.6738

EPHEMERIS_TYPE = 0
CLASSIFICATION_TYPE = U
NORAD_CAT_ID   = 68059
ELEMENT_SET_NO = 999
REV_AT_EPOCH   = 375
BSTAR          = .1718E-2
MEAN_MOTION_DOT = .272386E-2
MEAN_MOTION_DDOT = 0

CCSDS_OMM_VERS = 2.0
CREATION_DATE  = 
ORIGINATOR     = 

OBJECT_NAME    = STARLINK-36959
OBJECT_ID      = 2026-041W
CENTER_NAME    = EARTH
REF_FRAME      = TEME
TIME_SYSTEM    = UTC
MEAN_ELEMENT_THEORY = SGP/SGP4

EPOCH          = 2026-03-25T10:02:45.075264
MEAN_MOTION    = 15.75339915
ECCENTRICITY   = .00014204
INCLINATION    = 53.1588
RA_OF_ASC_NODE = 343.4951
ARG_OF_PERICENTER = 57.7855
MEAN_ANOMALY   = 302.3303

EPHEMERIS_TYPE = 0
CLASSIFICATION_TYPE = U
NORAD_CAT_ID   = 68060
ELEMENT_SET_NO = 999
REV_AT_EPOCH   = 370
BSTAR          = .19082833E-2
MEAN_MOTION_DOT = .30397E-2
MEAN_MOTION_DDOT = 0

CCSDS_OMM_VERS = 2.0
CREATION_DATE  = 
ORIGINATOR     = 

OBJECT_NAME    = STARLINK-36915
OBJECT_ID      = 2026-041X
CENTER_NAME    = EARTH
REF_FRAME      = TEME
TIME_SYSTEM    = UTC
MEAN_ELEMENT_THEORY = SGP/SGP4

EPOCH          = 2026-03-25T20:00:01.999008
MEAN_MOTION    = 15.75308879
ECCENTRICITY   = .0001043
INCLINATION    = 53.1593
RA_OF_ASC_NODE = 341.2230
ARG_OF_PERICENTER = 111.6893
MEAN_ANOMALY   = 184.9433

EPHEMERIS_TYPE = 0
CLASSIFICATION_TYPE = U
NORAD_CAT_ID   = 68061
ELEMENT_SET_NO = 999
REV_AT_EPOCH   = 497
BSTAR          = -.89603E-3
MEAN_MOTION_DOT = -.136214E-2
MEAN_MOTION_DDOT = 0

CCSDS_OMM_VERS = 2.0
CREATION_DATE  = 
ORIGINATOR     = 

OBJECT_NAME    = STARLINK-36952
OBJECT_ID      = 2026-041Y
CENTER_NAME    = EARTH
REF_FRAME      = TEME
TIME_SYSTEM    = UTC
MEAN_ELEMENT_THEORY = SGP/SGP4

EPOCH          = 2026-03-25T10:08:48.770016
MEAN_MOTION    = 15.75286792
ECCENTRICITY   = .00012409
INCLINATION    = 53.1598
RA_OF_ASC_NODE = 343.5237
ARG_OF_PERICENTER = 58.1597
MEAN_ANOMALY   = 301.9544

EPHEMERIS_TYPE = 0
CLASSIFICATION_TYPE = U
NORAD_CAT_ID   = 68062
ELEMENT_SET_NO = 999
REV_AT_EPOCH   = 370
BSTAR          = .10586765E-2
MEAN_MOTION_DOT = .165193E-2
MEAN_MOTION_DDOT = 0

CCSDS_OMM_VERS = 2.0
CREATION_DATE  = 
ORIGINATOR     = 

OBJECT_NAME    = STARLINK-37000
OBJECT_ID      = 2026-041Z
CENTER_NAME    = EARTH
REF_FRAME      = TEME
TIME_SYSTEM    = UTC
MEAN_ELEMENT_THEORY = SGP/SGP4

EPOCH          = 2026-03-25T20:00:01.999008
MEAN_MOTION    = 15.75318110
ECCENTRICITY   = .000092
INCLINATION    = 53.1585
RA_OF_ASC_NODE = 341.2759
ARG_OF_PERICENTER = 112.3645
MEAN_ANOMALY   = 158.5101

EPHEMERIS_TYPE = 0
CLASSIFICATION_TYPE = U
NORAD_CAT_ID   = 68063
ELEMENT_SET_NO = 999
REV_AT_EPOCH   = 497
BSTAR          = -.7577E-3
MEAN_MOTION_DOT = -.115607E-2
MEAN_MOTION_DDOT = 0

